GLOBALSTAR M023         
1 25621U 99004A   24173.89809215 -.00000002  00000+0  56833-3 0  9997
2 25621  52.0118  70.4972 0010861  52.6063  26.5267 12.62459137170222
GLOBALSTAR M040         
1 25622U 99004B   24173.89166103 -.00000086  00000+0  96945-4 0  9991
2 25622  51.9926  74.1375 0001028  11.3056  68.3556 12.61976559170063
GLOBALSTAR M036         
1 25623U 99004C   24173.27671069 -.00000080  00000+0  45766-4 0  9995
2 25623  51.9958 111.5774 0011502  76.4587  90.6716 11.86567793136135
GLOBALSTAR M038         
1 25624U 99004D   24173.07570015 -.00000072  00000+0  18704-3 0  9995
2 25624  51.9992  31.5093 0002457  38.7097 121.3519 12.32501625157843
GLOBALSTAR M022         
1 25649U 99012A   24173.42438149 -.00000086  00000+0  75607-5 0  9993
2 25649  52.0008 191.6067 0002552 178.7964 327.3073 12.02484327132979
GLOBALSTAR M041         
1 25650U 99012B   24173.87965887 -.00000150  00000+0 -82855-3 0  9992
2 25650  52.0034  60.8324 0002593 349.6982  10.3801 11.96657460135149
GLOBALSTAR M046         
1 25651U 99012C   24173.36437461  .00000003  00000+0  10153-2 0  9995
2 25651  52.0023 155.0738 0002300 258.9029 268.4566 12.09391329140003
GLOBALSTAR M037         
1 25652U 99012D   24173.55387446 -.00000066  00000+0  20948-3 0  9998
2 25652  51.9978 202.2992 0001910 113.4061  10.9674 12.62409225165725
